{
  "type": "FeatureCollection",
  "features": [
    {
      "type": "Feature",
      "properties": {
        "norad_id": 46277,
        "name": "NEMO-HD",
        "group": "resource",
        "lat": 27.072121218691244,
        "lon": 52.729432932663386,
        "alt_km": 442.81358594761514,
        "timestamp": "2025-12-23T11:34:47.839697+00:00",
        "meta_object_name": "NEMO-HD",
        "meta_object_id": "2020-061F",
        "meta_epoch": "2025-12-23T03:40:01.996032",
        "meta_mean_motion": 15.40531255,
        "meta_eccentricity": 0.0001207,
        "meta_inclination": 97.2192,
        "meta_ra_of_asc_node": 56.1186,
        "meta_arg_of_pericenter": 52.076,
        "meta_mean_anomaly": 308.0596,
        "meta_ephemeris_type": 0,
        "meta_classification_type": "U",
        "meta_norad_cat_id": 46277,
        "meta_element_set_no": 999,
        "meta_rev_at_epoch": 29484,
        "meta_bstar": 0.00027425,
        "meta_mean_motion_dot": 0.00011056,
        "meta_mean_motion_ddot": 0,
        "tle_line1": "1 46277U 20061F   25357.15280088  .00011056  00000+0  27425-3 0  9994",
        "tle_line2": "2 46277  97.2192  56.1186 0001207  52.0760 308.0596 15.40531255294844"
      },
      "geometry": {
        "type": "Point",
        "coordinates": [
          52.729432932663386,
          27.072121218691244
        ]
      }
    },
    {
      "type": "Feature",
      "properties": {
        "norad_id": 46984,
        "name": "SENTINEL-6A",
        "group": "resource",
        "lat": -42.02103562709489,
        "lon": 116.37587289990579,
        "alt_km": 1339.0521594563197,
        "timestamp": "2025-12-23T11:34:47.839706+00:00",
        "meta_object_name": "SENTINEL-6A",
        "meta_object_id": "2020-086A",
        "meta_epoch": "2025-12-23T02:27:21.718080",
        "meta_mean_motion": 12.80930775,
        "meta_eccentricity": 0.0007743,
        "meta_inclination": 66.0397,
        "meta_ra_of_asc_node": 140.7845,
        "meta_arg_of_pericenter": 269.406,
        "meta_mean_anomaly": 90.6068,
        "meta_ephemeris_type": 0,
        "meta_classification_type": "U",
        "meta_norad_cat_id": 46984,
        "meta_element_set_no": 999,
        "meta_rev_at_epoch": 23777,
        "meta_bstar": -4.1854e-05,
        "meta_mean_motion_dot": -7.1e-07,
        "meta_mean_motion_ddot": 0,
        "tle_line1": "1 46984U 20086A   25357.10233470 -.00000071  00000+0 -41854-4 0  9994",
        "tle_line2": "2 46984  66.0397 140.7845 0007743 269.4060  90.6068 12.80930775237778"
      },
      "geometry": {
        "type": "Point",
        "coordinates": [
          116.37587289990579,
          -42.02103562709489
        ]
      }
    },
    {
      "type": "Feature",
      "properties": {
        "norad_id": 48079,
        "name": "GAOFEN-12 02",
        "group": "resource",
        "lat": -17.797818787633727,
        "lon": -5.979824962611088,
        "alt_km": 632.4782814564642,
        "timestamp": "2025-12-23T11:34:47.839716+00:00",
        "meta_object_name": "GAOFEN-12 02",
        "meta_object_id": "2021-026A",
        "meta_epoch": "2025-12-23T05:10:24.739968",
        "meta_mean_motion": 14.80687086,
        "meta_eccentricity": 0.0003584,
        "meta_inclination": 97.9856,
        "meta_ra_of_asc_node": 351.1716,
        "meta_arg_of_pericenter": 80.0984,
        "meta_mean_anomaly": 280.0633,
        "meta_ephemeris_type": 0,
        "meta_classification_type": "U",
        "meta_norad_cat_id": 48079,
        "meta_element_set_no": 999,
        "meta_rev_at_epoch": 25572,
        "meta_bstar": 6.9985e-05,
        "meta_mean_motion_dot": 4.85e-06,
        "meta_mean_motion_ddot": 0,
        "tle_line1": "1 48079U 21026A   25357.21556412  .00000485  00000+0  69985-4 0  9994",
        "tle_line2": "2 48079  97.9856 351.1716 0003584  80.0984 280.0633 14.80687086255728"
      },
      "geometry": {
        "type": "Point",
        "coordinates": [
          -5.979824962611088,
          -17.797818787633727
        ]
      }
    },
    {
      "type": "Feature",
      "properties": {
        "norad_id": 48268,
        "name": "PLEIADES NEO 3",
        "group": "resource",
        "lat": 81.67336267817113,
        "lon": -1.6873111150201783,
        "alt_km": 615.6067736043906,
        "timestamp": "2025-12-23T11:34:47.839725+00:00",
        "meta_object_name": "PLEIADES NEO 3",
        "meta_object_id": "2021-034A",
        "meta_epoch": "2025-12-23T01:27:45.261792",
        "meta_mean_motion": 14.81674157,
        "meta_eccentricity": 0.0001406,
        "meta_inclination": 97.8947,
        "meta_ra_of_asc_node": 69.354,
        "meta_arg_of_pericenter": 89.445,
        "meta_mean_anomaly": 270.6924,
        "meta_ephemeris_type": 0,
        "meta_classification_type": "U",
        "meta_norad_cat_id": 48268,
        "meta_element_set_no": 999,
        "meta_rev_at_epoch": 25157,
        "meta_bstar": 6.1566e-06,
        "meta_mean_motion_dot": -4e-08,
        "meta_mean_motion_ddot": 0,
        "tle_line1": "1 48268U 21034A   25357.06094053 -.00000004  00000+0  61566-5 0  9990",
        "tle_line2": "2 48268  97.8947  69.3540 0001406  89.4450 270.6924 14.81674157251576"
      },
      "geometry": {
        "type": "Point",
        "coordinates": [
          -1.6873111150201783,
          81.67336267817113
        ]
      }
    },
    {
      "type": "Feature",
      "properties": {
        "norad_id": 49070,
        "name": "PLEIADES NEO 4",
        "group": "resource",
        "lat": -81.68709103171214,
        "lon": 178.01174629383033,
        "alt_km": 632.3301829430511,
        "timestamp": "2025-12-23T11:34:47.839733+00:00",
        "meta_object_name": "PLEIADES NEO 4",
        "meta_object_id": "2021-073E",
        "meta_epoch": "2025-12-20T17:32:43.596096",
        "meta_mean_motion": 14.81672155,
        "meta_eccentricity": 0.00013181,
        "meta_inclination": 97.8951,
        "meta_ra_of_asc_node": 67.0539,
        "meta_arg_of_pericenter": 90.4145,
        "meta_mean_anomaly": 269.7219,
        "meta_ephemeris_type": 0,
        "meta_classification_type": "U",
        "meta_norad_cat_id": 49070,
        "meta_element_set_no": 999,
        "meta_rev_at_epoch": 23494,
        "meta_bstar": -3.817265e-05,
        "meta_mean_motion_dot": -3.52e-06,
        "meta_mean_motion_ddot": 0,
        "tle_line1": "1 49070U 21073E   25354.73106014 -.00000352  00000+0 -38173-4 0  9991",
        "tle_line2": "2 49070  97.8951  67.0539 0001318  90.4145 269.7219 14.81672155234945"
      },
      "geometry": {
        "type": "Point",
        "coordinates": [
          178.01174629383033,
          -81.68709103171214
        ]
      }
    },
    {
      "type": "Feature",
      "properties": {
        "norad_id": 49260,
        "name": "LANDSAT 9",
        "group": "resource",
        "lat": 54.60532984878294,
        "lon": 53.71616518353982,
        "alt_km": 696.712690164738,
        "timestamp": "2025-12-23T11:34:47.839742+00:00",
        "meta_object_name": "LANDSAT 9",
        "meta_object_id": "2021-088A",
        "meta_epoch": "2025-12-23T01:26:16.654272",
        "meta_mean_motion": 14.57108252,
        "meta_eccentricity": 0.0001099,
        "meta_inclination": 98.208,
        "meta_ra_of_asc_node": 65.0208,
        "meta_arg_of_pericenter": 92.5758,
        "meta_mean_anomaly": 267.5566,
        "meta_ephemeris_type": 0,
        "meta_classification_type": "U",
        "meta_norad_cat_id": 49260,
        "meta_element_set_no": 999,
        "meta_rev_at_epoch": 22535,
        "meta_bstar": 0.00010761,
        "meta_mean_motion_dot": 4.4e-06,
        "meta_mean_motion_ddot": 0,
        "tle_line1": "1 49260U 21088A   25357.05991498  .00000440  00000+0  10761-3 0  9992",
        "tle_line2": "2 49260  98.2080  65.0208 0001099  92.5758 267.5566 14.57108252225355"
      },
      "geometry": {
        "type": "Point",
        "coordinates": [
          53.71616518353982,
          54.60532984878294
        ]
      }
    },
    {
      "type": "Feature",
      "properties": {
        "norad_id": 51444,
        "name": "CSG-2",
        "group": "resource",
        "lat": -41.03972855758449,
        "lon": -174.43200844002982,
        "alt_km": 629.6853456338467,
        "timestamp": "2025-12-23T11:34:47.839751+00:00",
        "meta_object_name": "CSG-2",
        "meta_object_id": "2022-008A",
        "meta_epoch": "2025-12-23T03:39:56.409408",
        "meta_mean_motion": 14.82154785,
        "meta_eccentricity": 0.0001508,
        "meta_inclination": 97.8801,
        "meta_ra_of_asc_node": 178.3186,
        "meta_arg_of_pericenter": 82.3975,
        "meta_mean_anomaly": 277.7409,
        "meta_ephemeris_type": 0,
        "meta_classification_type": "U",
        "meta_norad_cat_id": 51444,
        "meta_element_set_no": 999,
        "meta_rev_at_epoch": 21051,
        "meta_bstar": 8.9463e-05,
        "meta_mean_motion_dot": 6.6e-06,
        "meta_mean_motion_ddot": 0,
        "tle_line1": "1 51444U 22008A   25357.15273622  .00000660  00000+0  89463-4 0  9995",
        "tle_line2": "2 51444  97.8801 178.3186 0001508  82.3975 277.7409 14.82154785210515"
      },
      "geometry": {
        "type": "Point",
        "coordinates": [
          -174.43200844002982,
          -41.03972855758449
        ]
      }
    }
  ]
}